NORAD_CAT_ID,OBJECT_NAME,OBJECT_TYPE,EPOCH,MEAN_MOTION,ECCENTRICITY,INCLINATION,RA_OF_ASC_NODE,ARG_OF_PERICENTER,MEAN_ANOMALY,BSTAR,MEAN_MOTION_DOT,MEAN_MOTION_DDOT,TLE_LINE0,TLE_LINE1,TLE_LINE2,SEMIMAJOR_AXIS,PERIOD,APOGEE,PERIGEE,DECAYED
54009.0,STARLINK-5099,PAYLOAD,2024-03-24 14:21:35,15.08842072,0.0001618,53.217,183.8978,91.5701,268.5477,0.00010287,1.35e-05,0.0,0 STARLINK-5099,1 54009U 22125AX  24084.59832854  .00001350  00000-0  10287-3 0  9992,2 54009  53.2170 183.8978 0001618  91.5701 268.5477 15.08842072 81512,6917.874,95.437,540.858,538.62,0.0
54009.0,STARLINK-5099,PAYLOAD,2024-03-24 23:53:52,15.0886184,0.0001563,53.218,182.1127,83.565,276.552,0.00025974,3.851e-05,0.0,0 STARLINK-5099,1 54009U 22125AX  24084.99575158  .00003851  00000-0  25974-3 0  9994,2 54009  53.2180 182.1127 0001563  83.5650 276.5520 15.08861840 81628,6917.814,95.436,540.76,538.597,0.0
54009.0,STARLINK-5099,PAYLOAD,2024-03-25 12:36:59,15.08834375,0.0001811,53.2179,179.7337,100.5691,259.5506,0.00015527,2.184e-05,0.0,0 STARLINK-5099,1 54009U 22125AX  24085.52569241  .00002184  00000-0  15527-3 0  9991,2 54009  53.2179 179.7337 0001811 100.5691 259.5506 15.08834375 81709,6917.898,95.438,541.015,538.51,0.0
54009.0,STARLINK-5099,PAYLOAD,2024-03-26 12:27:48,15.08822605,0.0001406,53.2174,175.2716,104.6314,255.4834,-0.00014116,-2.533e-05,0.0,0 STARLINK-5099,1 54009U 22125AX  24086.51931140 -.00002533  00000-0 -14116-3 0  9995,2 54009  53.2174 175.2716 0001406 104.6314 255.4834 15.08822605 81851,6917.934,95.439,540.771,538.826,0.0
54009.0,STARLINK-5099,PAYLOAD,2024-03-26 15:38:34,15.08822868,0.0001662,53.2179,174.6759,119.7692,240.3466,-6.0128e-05,-1.244e-05,0.0,0 STARLINK-5099,1 54009U 22125AX  24086.65178999 -.00001244  00000-0 -60128-4 0  9998,2 54009  53.2179 174.6759 0001662 119.7692 240.3466 15.08822868 81828,6917.933,95.439,540.948,538.648,0.0
54009.0,STARLINK-5099,PAYLOAD,2024-03-27 12:18:33,15.08847497,0.0001376,53.2168,170.8135,109.7074,250.4067,0.00019942,2.888e-05,0.0,0 STARLINK-5099,1 54009U 22125AX  24087.51288974  .00002888  00000-0  19942-3 0  9999,2 54009  53.2168 170.8135 0001376 109.7074 250.4067 15.08847497 82002,6917.857,95.437,540.674,538.771,0.0
54009.0,STARLINK-5099,PAYLOAD,2024-03-28 12:09:21,15.08834465,0.0001118,53.2163,166.3499,91.8503,268.2618,0.00021321,3.107e-05,0.0,0 STARLINK-5099,1 54009U 22125AX  24088.50649718  .00003107  00000-0  21321-3 0  9995,2 54009  53.2163 166.3499 0001118  91.8503 268.2618 15.08834465 82158,6917.897,95.438,540.536,538.989,0.0
54009.0,STARLINK-5099,PAYLOAD,2024-03-28 21:41:39,15.08852747,0.0001272,53.2179,164.5687,102.9079,257.2055,0.00020512,2.979e-05,0.0,0 STARLINK-5099,1 54009U 22125AX  24088.90392397  .00002979  00000-0  20512-3 0  9994,2 54009  53.2179 164.5687 0001272 102.9079 257.2055 15.08852747 82164,6917.841,95.437,540.586,538.826,0.0
54009.0,STARLINK-5099,PAYLOAD,2024-03-29 12:00:08,15.08838749,0.000143,53.2175,161.8947,108.9029,251.2118,-0.00011276,-2.082e-05,0.0,0 STARLINK-5099,1 54009U 22125AX  24089.50010316 -.00002082  00000-0 -11276-3 0  9993,2 54009  53.2175 161.8947 0001430 108.9029 251.2118 15.08838749 82256,6917.884,95.438,540.738,538.76,0.0
54009.0,STARLINK-5099,PAYLOAD,2024-03-29 21:32:26,15.08850057,0.0001205,53.2171,160.1047,87.1253,272.9877,1.5995e-05,-3.3e-07,0.0,0 STARLINK-5099,1 54009U 22125AX  24089.89753035 -.00000033  00000-0  15995-4 0  9993,2 54009  53.2171 160.1047 0001205  87.1253 272.9877 15.08850057 82317,6917.85,95.437,540.548,538.881,0.0
54009.0,STARLINK-5099,PAYLOAD,2024-03-30 03:53:59,15.08838375,0.0001652,53.2193,158.9212,95.9013,264.2167,4.5371e-05,4.34e-06,0.0,0 STARLINK-5099,1 54009U 22125AX  24090.16249676  .00000434  00000-0  45371-4 0  9991,2 54009  53.2193 158.9212 0001652  95.9013 264.2167 15.08838375 82402,6917.885,95.438,540.893,538.608,0.0
54009.0,STARLINK-5099,PAYLOAD,2024-03-30 11:50:55,15.08834551,0.0001649,53.219,157.4335,93.1141,267.004,6.7076e-06,-1.81e-06,0.0,0 STARLINK-5099,1 54009U 22125AX  24090.49370115 -.00000181  00000-0  67076-5 0  9997,2 54009  53.2190 157.4335 0001649  93.1141 267.0040 15.08834551 82400,6917.897,95.438,540.903,538.621,0.0
54009.0,STARLINK-5099,PAYLOAD,2024-03-30 21:23:13,15.0884895,0.0001528,53.2178,155.6484,91.4752,268.6415,-5.9806e-06,-3.83e-06,0.0,0 STARLINK-5099,1 54009U 22125AX  24090.89113140 -.00000383  00000-0 -59806-5 0  9991,2 54009  53.2178 155.6484 0001528  91.4752 268.6415 15.08848950 82463,6917.853,95.437,540.775,538.661,0.0
54009.0,STARLINK-5099,PAYLOAD,2024-03-31 11:41:42,15.08835585,0.0001719,53.2183,152.971,93.2989,266.82,3.8229e-05,3.2e-06,0.0,0 STARLINK-5099,1 54009U 22125AX  24091.48730035  .00000320  00000-0  38229-4 0  9999,2 54009  53.2183 152.9710 0001719  93.2989 266.8200 15.08835585 82603,6917.894,95.438,540.948,538.57,0.0
54009.0,STARLINK-5099,PAYLOAD,2024-03-31 21:14:00,15.08849208,0.0001463,53.2174,151.1851,82.2802,277.8356,7.661e-05,9.32e-06,0.0,0 STARLINK-5099,1 54009U 22125AX  24091.88472907  .00000932  00000-0  76610-4 0  9999,2 54009  53.2174 151.1851 0001463  82.2802 277.8356 15.08849208 82665,6917.852,95.437,540.729,538.705,0.0
54009.0,STARLINK-5099,PAYLOAD,2024-04-01 11:32:30,15.08833015,0.0001424,53.2166,148.5093,89.8082,270.3073,-3.0737e-05,-7.77e-06,0.0,0 STARLINK-5099,1 54009U 22125AX  24092.48090455 -.00000777  00000-0 -30737-4 0  9999,2 54009  53.2166 148.5093 0001424  89.8082 270.3073 15.08833015 82757,6917.902,95.438,540.752,538.782,0.0
54009.0,STARLINK-5099,PAYLOAD,2024-04-01 13:07:53,15.08835001,0.0001424,53.2165,148.2112,90.6631,269.4524,-2.0518e-05,-6.14e-06,0.0,0 STARLINK-5099,1 54009U 22125AX  24092.54714310 -.00000614  00000-0 -20518-4 0  9995,2 54009  53.2165 148.2112 0001424  90.6631 269.4524 15.08835001 82718,6917.896,95.438,540.746,538.776,0.0
54009.0,STARLINK-5099,PAYLOAD,2024-04-01 21:04:48,15.08841265,0.0001586,53.2171,146.7277,86.9918,273.1256,1.9125e-05,1.6e-07,0.0,0 STARLINK-5099,1 54009U 22125AX  24092.87833896  .00000016  00000-0  19125-4 0  9998,2 54009  53.2171 146.7277 0001586  86.9918 273.1256 15.08841265 82819,6917.877,95.437,540.839,538.644,0.0
54009.0,STARLINK-5099,PAYLOAD,2024-04-02 09:47:53,15.08839896,0.0001598,53.2167,144.3483,88.287,271.8305,9.3983e-05,1.208e-05,0.0,0 STARLINK-5099,1 54009U 22125AX  24093.40825802  .00001208  00000-0  93983-4 0  9994,2 54009  53.2167 144.3483 0001598  88.2870 271.8305 15.08839896 82842,6917.881,95.438,540.851,538.64,0.0
54009.0,STARLINK-5099,PAYLOAD,2024-04-02 20:55:34,15.08848002,0.0001642,53.2175,142.2648,117.2084,242.9076,4.8353e-05,4.82e-06,0.0,0 STARLINK-5099,1 54009U 22125AX  24093.87193142  .00000482  00000-0  48353-4 0  9994,2 54009  53.2175 142.2648 0001642 117.2084 242.9076 15.08848002 82967,6917.856,95.437,540.857,538.585,0.0
54009.0,STARLINK-5099,PAYLOAD,2024-04-03 12:49:27,15.08835711,0.0001614,53.2182,139.2918,93.7879,266.3298,4.0146e-05,3.51e-06,0.0,0 STARLINK-5099,1 54009U 22125AX  24094.53434156  .00000351  00000-0  40146-4 0  9998,2 54009  53.2182 139.2918 0001614  93.7879 266.3298 15.08835711 83061,6917.893,95.438,540.875,538.642,0.0
54009.0,STARLINK-5099,PAYLOAD,2024-04-04 09:29:27,15.08831261,0.0001533,53.2182,135.4263,94.8629,265.2539,0.00012309,1.671e-05,0.0,0 STARLINK-5099,1 54009U 22125AX  24095.39546278  .00001671  00000-0  12309-3 0  9997,2 54009  53.2182 135.4263 0001533  94.8629 265.2539 15.08831261 83148,6917.907,95.438,540.833,538.712,0.0
54009.0,STARLINK-5099,PAYLOAD,2024-04-04 19:01:46,15.08841817,0.0001524,53.218,133.6424,92.0724,268.0443,-7.367e-06,-4.05e-06,0.0,0 STARLINK-5099,1 54009U 22125AX  24095.79289857 -.00000405  00000-0 -73670-5 0  9994,2 54009  53.2180 133.6424 0001524  92.0724 268.0443 15.08841817 83256,6917.875,95.437,540.794,538.686,0.0
54009.0,STARLINK-5099,PAYLOAD,2024-04-05 09:20:14,15.08841082,0.0001398,53.217,130.966,90.2013,269.9139,6.4644e-05,7.41e-06,0.0,0 STARLINK-5099,1 54009U 22125AX  24096.38905622  .00000741  00000-0  64644-4 0  9996,2 54009  53.2170 130.9660 0001398  90.2013 269.9139 15.08841082 83297,6917.877,95.437,540.709,538.775,0.0
54009.0,STARLINK-5099,PAYLOAD,2024-04-06 01:14:05,15.08840195,0.0001397,53.2169,127.9935,93.9731,266.142,5.6746e-05,6.15e-06,0.0,0 STARLINK-5099,1 54009U 22125AX  24097.05145629  .00000615  00000-0  56746-4 0  9998,2 54009  53.2169 127.9935 0001397  93.9731 266.1420 15.08840195 83445,6917.88,95.438,540.711,538.778,0.0
54009.0,STARLINK-5099,PAYLOAD,2024-04-06 12:21:48,15.08833373,0.0001389,53.2167,125.9109,91.0675,269.0476,5.5216e-06,-2e-06,0.0,0 STARLINK-5099,1 54009U 22125AX  24097.51514427 -.00000200  00000-0  55216-5 0  9998,2 54009  53.2167 125.9109 0001389  91.0675 269.0476 15.08833373 83512,6917.901,95.438,540.727,538.805,0.0
54009.0,STARLINK-5099,PAYLOAD,2024-04-06 18:43:20,15.08837545,0.0001393,53.2167,124.7218,92.1677,267.9475,1.3934e-05,-6.6e-07,0.0,0 STARLINK-5099,1 54009U 22125AX  24097.78010184 -.00000066  00000-0  13934-4 0  9998,2 54009  53.2167 124.7218 0001393  92.1677 267.9475 15.08837545 83509,6917.888,95.438,540.717,538.789,0.0
54009.0,STARLINK-5099,PAYLOAD,2024-04-07 09:01:51,15.0881771,0.0001568,53.2174,122.0448,90.6886,269.4286,-0.00013589,-2.449e-05,0.0,0 STARLINK-5099,1 54009U 22125AX  24098.37628581 -.00002449  00000-0 -13589-3 0  9993,2 54009  53.2174 122.0448 0001568  90.6886 269.4286 15.08817710 83646,6917.949,95.439,540.898,538.729,0.0
54009.0,STARLINK-5099,PAYLOAD,2024-04-08 08:52:37,15.08829857,0.0001437,53.2166,117.5842,94.139,265.9767,6.915e-05,8.12e-06,0.0,0 STARLINK-5099,1 54009U 22125AX  24099.36987976  .00000812  00000-0  69150-4 0  9995,2 54009  53.2166 117.5842 0001437  94.1390 265.9767 15.08829857 83794,6917.911,95.438,540.77,538.782,0.0
54009.0,STARLINK-5099,PAYLOAD,2024-04-09 00:46:28,15.08840325,0.0001798,53.2166,114.6095,89.4149,270.7049,8.4305e-05,1.054e-05,0.0,0 STARLINK-5099,1 54009U 22125AX  24100.03227708  .00001054  00000-0  84305-4 0  9990,2 54009  53.2166 114.6095 0001798  89.4149 270.7049 15.08840325 83847,6917.879,95.438,540.988,538.501,0.0
